[{"OBJECT_NAME":"ONEWEB-0602","OBJECT_ID":"2022-166AA","EPOCH":"2026-03-05T14:20:21.415776","MEAN_MOTION":13.21826103,"ECCENTRICITY":0.00013864,"INCLINATION":87.9165,"RA_OF_ASC_NODE":264.6621,"ARG_OF_PERICENTER":99.2118,"MEAN_ANOMALY":260.9173,"EPHEMERIS_TYPE":0,"CLASSIFICATION_TYPE":"U","NORAD_CAT_ID":54666,"ELEMENT_SET_NO":999,"REV_AT_EPOCH":15786,"BSTAR":-0.00024318552,"MEAN_MOTION_DOT":-8.7e-7,"MEAN_MOTION_DDOT":0},{"OBJECT_NAME":"ONEWEB-0603","OBJECT_ID":"2022-166AB","EPOCH":"2026-03-05T14:28:38.551872","MEAN_MOTION":13.21826507,"ECCENTRICITY":0.00014163,"INCLINATION":87.9175,"RA_OF_ASC_NODE":264.6064,"ARG_OF_PERICENTER":88.1931,"MEAN_ANOMALY":271.9365,"EPHEMERIS_TYPE":0,"CLASSIFICATION_TYPE":"U","NORAD_CAT_ID":54667,"ELEMENT_SET_NO":999,"REV_AT_EPOCH":15779,"BSTAR":-0.00018613947,"MEAN_MOTION_DOT":-6.4e-7,"MEAN_MOTION_DDOT":0},{"OBJECT_NAME":"ONEWEB-0604","OBJECT_ID":"2022-166AC","EPOCH":"2026-03-05T14:12:03.449376","MEAN_MOTION":13.21827442,"ECCENTRICITY":0.0001642,"INCLINATION":87.9174,"RA_OF_ASC_NODE":264.623,"ARG_OF_PERICENTER":92.5362,"MEAN_ANOMALY":267.596,"EPHEMERIS_TYPE":0,"CLASSIFICATION_TYPE":"U","NORAD_CAT_ID":54668,"ELEMENT_SET_NO":999,"REV_AT_EPOCH":15775,"BSTAR":0.0001118642,"MEAN_MOTION_DOT":5.9e-7,"MEAN_MOTION_DDOT":0},{"OBJECT_NAME":"ONEWEB-0605","OBJECT_ID":"2022-166AD","EPOCH":"2026-03-05T14:02:34.854432","MEAN_MOTION":13.21823756,"ECCENTRICITY":0.00014004,"INCLINATION":87.9168,"RA_OF_ASC_NODE":264.6493,"ARG_OF_PERICENTER":70.4382,"MEAN_ANOMALY":289.6903,"EPHEMERIS_TYPE":0,"CLASSIFICATION_TYPE":"U","NORAD_CAT_ID":54669,"ELEMENT_SET_NO":999,"REV_AT_EPOCH":15782,"BSTAR":0.00014194109,"MEAN_MOTION_DOT":7.2e-7,"MEAN_MOTION_DDOT":0},{"OBJECT_NAME":"ONEWEB-0606","OBJECT_ID":"2022-166AE","EPOCH":"2026-03-05T14:33:24.438240","MEAN_MOTION":13.2182645,"ECCENTRICITY":0.00017659,"INCLINATION":87.9164,"RA_OF_ASC_NODE":264.6572,"ARG_OF_PERICENTER":90.2441,"MEAN_ANOMALY":269.8895,"EPHEMERIS_TYPE":0,"CLASSIFICATION_TYPE":"U","NORAD_CAT_ID":54670,"ELEMENT_SET_NO":999,"REV_AT_EPOCH":15788,"BSTAR":1.8720374e-5,"MEAN_MOTION_DOT":2.1e-7,"MEAN_MOTION_DDOT":0},{"OBJECT_NAME":"ONEWEB-0607","OBJECT_ID":"2022-166AF","EPOCH":"2026-03-05T13:46:01.555104","MEAN_MOTION":13.21826014,"ECCENTRICITY":0.00014303,"INCLINATION":87.9169,"RA_OF_ASC_NODE":264.6272,"ARG_OF_PERICENTER":88.213,"MEAN_ANOMALY":271.9168,"EPHEMERIS_TYPE":0,"CLASSIFICATION_TYPE":"U","NORAD_CAT_ID":54671,"ELEMENT_SET_NO":999,"REV_AT_EPOCH":15785,"BSTAR":0.00028160141,"MEAN_MOTION_DOT":1.29e-6,"MEAN_MOTION_DDOT":0},{"OBJECT_NAME":"ONEWEB-0608","OBJECT_ID":"2022-166AG","EPOCH":"2026-03-05T13:55:28.611264","MEAN_MOTION":13.21827435,"ECCENTRICITY":0.00011743,"INCLINATION":87.9181,"RA_OF_ASC_NODE":264.6207,"ARG_OF_PERICENTER":73.8604,"MEAN_ANOMALY":286.2659,"EPHEMERIS_TYPE":0,"CLASSIFICATION_TYPE":"U","NORAD_CAT_ID":54672,"ELEMENT_SET_NO":999,"REV_AT_EPOCH":15786,"BSTAR":0.00017561615,"MEAN_MOTION_DOT":8.6e-7,"MEAN_MOTION_DDOT":0},{"OBJECT_NAME":"ONEWEB-0610","OBJECT_ID":"2022-166AH","EPOCH":"2026-03-05T13:27:01.869984","MEAN_MOTION":13.21826749,"ECCENTRICITY":0.00010134,"INCLINATION":87.916,"RA_OF_ASC_NODE":264.6486,"ARG_OF_PERICENTER":79.2445,"MEAN_ANOMALY":280.8803,"EPHEMERIS_TYPE":0,"CLASSIFICATION_TYPE":"U","NORAD_CAT_ID":54673,"ELEMENT_SET_NO":999,"REV_AT_EPOCH":15776,"BSTAR":0.00011661413,"MEAN_MOTION_DOT":6.1e-7,"MEAN_MOTION_DDOT":0},{"OBJECT_NAME":"ONEWEB-0611","OBJECT_ID":"2022-166AJ","EPOCH":"2026-03-05T13:17:34.851840","MEAN_MOTION":13.21828122,"ECCENTRICITY":0.00017182,"INCLINATION":87.9162,"RA_OF_ASC_NODE":264.647,"ARG_OF_PERICENTER":95.9287,"MEAN_ANOMALY":264.2042,"EPHEMERIS_TYPE":0,"CLASSIFICATION_TYPE":"U","NORAD_CAT_ID":54674,"ELEMENT_SET_NO":999,"REV_AT_EPOCH":15775,"BSTAR":7.173824e-5,"MEAN_MOTION_DOT":4.3e-7,"MEAN_MOTION_DDOT":0},{"OBJECT_NAME":"ONEWEB-0612","OBJECT_ID":"2022-166AK","EPOCH":"2026-03-05T13:36:32.818464","MEAN_MOTION":13.21826427,"ECCENTRICITY":0.00014699,"INCLINATION":87.9174,"RA_OF_ASC_NODE":264.6279,"ARG_OF_PERICENTER":88.8982,"MEAN_ANOMALY":271.2321,"EPHEMERIS_TYPE":0,"CLASSIFICATION_TYPE":"U","NORAD_CAT_ID":54675,"ELEMENT_SET_NO":999,"REV_AT_EPOCH":15774,"BSTAR":9.660489e-6,"MEAN_MOTION_DOT":1.7e-7,"MEAN_MOTION_DDOT":0},{"OBJECT_NAME":"ONEWEB-0615","OBJECT_ID":"2022-166AL","EPOCH":"2026-03-05T14:57:06.436224","MEAN_MOTION":13.21826115,"ECCENTRICITY":0.0001544,"INCLINATION":87.9165,"RA_OF_ASC_NODE":264.6407,"ARG_OF_PERICENTER":89.5783,"MEAN_ANOMALY":270.5528,"EPHEMERIS_TYPE":0,"CLASSIFICATION_TYPE":"U","NORAD_CAT_ID":54676,"ELEMENT_SET_NO":999,"REV_AT_EPOCH":15776,"BSTAR":-3.1171151e-5,"MEAN_MOTION_DOT":0,"MEAN_MOTION_DDOT":0},{"OBJECT_NAME":"ONEWEB-0655","OBJECT_ID":"2022-166AM","EPOCH":"2026-03-05T14:21:33.871680","MEAN_MOTION":13.21825348,"ECCENTRICITY":0.00013722,"INCLINATION":87.9167,"RA_OF_ASC_NODE":264.6482,"ARG_OF_PERICENTER":97.9386,"MEAN_ANOMALY":262.1904,"EPHEMERIS_TYPE":0,"CLASSIFICATION_TYPE":"U","NORAD_CAT_ID":54677,"ELEMENT_SET_NO":999,"REV_AT_EPOCH":15775,"BSTAR":-0.00020700305,"MEAN_MOTION_DOT":-7.2e-7,"MEAN_MOTION_DDOT":0},{"OBJECT_NAME":"ONEWEB-0659","OBJECT_ID":"2022-166AN","EPOCH":"2026-03-05T14:45:14.780160","MEAN_MOTION":13.21827235,"ECCENTRICITY":0.00016589,"INCLINATION":87.9163,"RA_OF_ASC_NODE":264.6455,"ARG_OF_PERICENTER":89.2453,"MEAN_ANOMALY":270.8871,"EPHEMERIS_TYPE":0,"CLASSIFICATION_TYPE":"U","NORAD_CAT_ID":54678,"ELEMENT_SET_NO":999,"REV_AT_EPOCH":15784,"BSTAR":-5.8095953e-5,"MEAN_MOTION_DOT":-1.1e-7,"MEAN_MOTION_DDOT":0},{"OBJECT_NAME":"ONEWEB-0685","OBJECT_ID":"2022-166AP","EPOCH":"2026-03-05T14:45:46.393056","MEAN_MOTION":13.21812631,"ECCENTRICITY":0.00013725,"INCLINATION":87.9159,"RA_OF_ASC_NODE":264.6405,"ARG_OF_PERICENTER":91.7237,"MEAN_ANOMALY":268.4055,"EPHEMERIS_TYPE":0,"CLASSIFICATION_TYPE":"U","NORAD_CAT_ID":54679,"ELEMENT_SET_NO":999,"REV_AT_EPOCH":15773,"BSTAR":-6.0506282e-5,"MEAN_MOTION_DOT":-1.2e-7,"MEAN_MOTION_DDOT":0},{"OBJECT_NAME":"ONEWEB-0712","OBJECT_ID":"2022-166AQ","EPOCH":"2026-03-05T13:15:06.335424","MEAN_MOTION":13.16593854,"ECCENTRICITY":0.00014271,"INCLINATION":87.9005,"RA_OF_ASC_NODE":249.388,"ARG_OF_PERICENTER":114.288,"MEAN_ANOMALY":245.84,"EPHEMERIS_TYPE":0,"CLASSIFICATION_TYPE":"U","NORAD_CAT_ID":54680,"ELEMENT_SET_NO":999,"REV_AT_EPOCH":15842,"BSTAR":-2.1360622e-5,"MEAN_MOTION_DOT":5.0e-8,"MEAN_MOTION_DDOT":0},{"OBJECT_NAME":"ONEWEB-0714","OBJECT_ID":"2022-166AR","EPOCH":"2026-03-05T14:54:42.972480","MEAN_MOTION":13.21824186,"ECCENTRICITY":0.00014328,"INCLINATION":87.9163,"RA_OF_ASC_NODE":264.6343,"ARG_OF_PERICENTER":92.7163,"MEAN_ANOMALY":267.4135,"EPHEMERIS_TYPE":0,"CLASSIFICATION_TYPE":"U","NORAD_CAT_ID":54681,"ELEMENT_SET_NO":999,"REV_AT_EPOCH":15785,"BSTAR":-2.2027658e-5,"MEAN_MOTION_DOT":4.0e-8,"MEAN_MOTION_DDOT":0},{"OBJECT_NAME":"ONEWEB-0532","OBJECT_ID":"2023-004A","EPOCH":"2026-03-04T09:26:21.873408","MEAN_MOTION":13.17649501,"ECCENTRICITY":0.00020141,"INCLINATION":87.9151,"RA_OF_ASC_NODE":26.6727,"ARG_OF_PERICENTER":71.0004,"MEAN_ANOMALY":289.1345,"EPHEMERIS_TYPE":0,"CLASSIFICATION_TYPE":"U","NORAD_CAT_ID":55140,"ELEMENT_SET_NO":999,"REV_AT_EPOCH":15378,"BSTAR":4.2979159e-5,"MEAN_MOTION_DOT":3.0e-7,"MEAN_MOTION_DDOT":0},{"OBJECT_NAME":"ONEWEB-0533","OBJECT_ID":"2023-004B","EPOCH":"2026-03-05T07:37:07.190112","MEAN_MOTION":13.12440978,"ECCENTRICITY":0.00016217,"INCLINATION":87.8999,"RA_OF_ASC_NODE":11.2816,"ARG_OF_PERICENTER":80.375,"MEAN_ANOMALY":279.7562,"EPHEMERIS_TYPE":0,"CLASSIFICATION_TYPE":"U","NORAD_CAT_ID":55141,"ELEMENT_SET_NO":999,"REV_AT_EPOCH":15443,"BSTAR":0.0002245021,"MEAN_MOTION_DOT":9.3e-7,"MEAN_MOTION_DDOT":0},{"OBJECT_NAME":"ONEWEB-0541","OBJECT_ID":"2023-004C","EPOCH":"2026-03-05T10:02:54.399552","MEAN_MOTION":13.11416198,"ECCENTRICITY":0.00019897,"INCLINATION":87.8859,"RA_OF_ASC_NODE":41.6839,"ARG_OF_PERICENTER":82.2886,"MEAN_ANOMALY":277.8467,"EPHEMERIS_TYPE":0,"CLASSIFICATION_TYPE":"U","NORAD_CAT_ID":55142,"ELEMENT_SET_NO":999,"REV_AT_EPOCH":15234,"BSTAR":-0.0014244413,"MEAN_MOTION_DOT":-4.92e-6,"MEAN_MOTION_DDOT":0},{"OBJECT_NAME":"ONEWEB-0543","OBJECT_ID":"2023-004D","EPOCH":"2026-03-05T12:23:48.680160","MEAN_MOTION":13.1868649,"ECCENTRICITY":0.00016751,"INCLINATION":87.923,"RA_OF_ASC_NODE":356.0685,"ARG_OF_PERICENTER":88.5252,"MEAN_ANOMALY":271.6072,"EPHEMERIS_TYPE":0,"CLASSIFICATION_TYPE":"U","NORAD_CAT_ID":55143,"ELEMENT_SET_NO":999,"REV_AT_EPOCH":15603,"BSTAR":0.00010369958,"MEAN_MOTION_DOT":5.4e-7,"MEAN_MOTION_DDOT":0},{"OBJECT_NAME":"ONEWEB-0544","OBJECT_ID":"2023-004E","EPOCH":"2026-03-05T04:57:15.567552","MEAN_MOTION":13.18686874,"ECCENTRICITY":0.00020185,"INCLINATION":87.9241,"RA_OF_ASC_NODE":356.1257,"ARG_OF_PERICENTER":85.2151,"MEAN_ANOMALY":274.9212,"EPHEMERIS_TYPE":0,"CLASSIFICATION_TYPE":"U","NORAD_CAT_ID":55144,"ELEMENT_SET_NO":999,"REV_AT_EPOCH":15599,"BSTAR":0.00022920765,"MEAN_MOTION_DOT":1.03e-6,"MEAN_MOTION_DDOT":0},{"OBJECT_NAME":"ONEWEB-0560","OBJECT_ID":"2023-004F","EPOCH":"2026-03-05T12:04:48.388512","MEAN_MOTION":13.18687174,"ECCENTRICITY":0.00019599,"INCLINATION":87.924,"RA_OF_ASC_NODE":356.057,"ARG_OF_PERICENTER":84.9361,"MEAN_ANOMALY":275.1995,"EPHEMERIS_TYPE":0,"CLASSIFICATION_TYPE":"U","NORAD_CAT_ID":55145,"ELEMENT_SET_NO":999,"REV_AT_EPOCH":15604,"BSTAR":0.00025010084,"MEAN_MOTION_DOT":1.12e-6,"MEAN_MOTION_DDOT":0},{"OBJECT_NAME":"ONEWEB-0565","OBJECT_ID":"2023-004G","EPOCH":"2026-03-05T11:55:16.951008","MEAN_MOTION":13.18695785,"ECCENTRICITY":0.000228,"INCLINATION":87.9231,"RA_OF_ASC_NODE":356.0959,"ARG_OF_PERICENTER":77.4927,"MEAN_ANOMALY":282.6461,"EPHEMERIS_TYPE":0,"CLASSIFICATION_TYPE":"U","NORAD_CAT_ID":55146,"ELEMENT_SET_NO":999,"REV_AT_EPOCH":15603,"BSTAR":0.0026414004,"MEAN_MOTION_DOT":1.055e-5,"MEAN_MOTION_DDOT":0}]
